OBJECT_NAME,OBJECT_ID,EPOCH,MEAN_MOTION,ECCENTRICITY,INCLINATION,RA_OF_ASC_NODE,ARG_OF_PERICENTER,MEAN_ANOMALY,EPHEMERIS_TYPE,CLASSIFICATION_TYPE,NORAD_CAT_ID,ELEMENT_SET_NO,REV_AT_EPOCH,BSTAR,MEAN_MOTION_DOT,MEAN_MOTION_DDOT
SMILE,2026-109A,2026-06-07T09:11:54.544416,7.54049028,.3310191,69.9787,209.3069,288.5544,45.7342,0,U,69123,999,248,-.36778157E-3,-.41E-6,0
STARLINK-37726,2026-110A,2026-06-17T13:20:52.421856,15.49198710,.00014939,97.2839,4.7768,90.7792,269.3630,0,U,69124,999,565,.52077724E-3,.28345E-3,0
STARLINK-37722,2026-110B,2026-06-15T13:12:33.569856,15.49208597,.0001731,97.2822,2.9146,97.0248,263.1200,0,U,69125,999,535,.52493359E-3,.28583E-3,0
STARLINK-37715,2026-110C,2026-06-17T11:59:44.230272,15.33449985,.00020308,97.2841,4.8560,79.4354,280.7118,0,U,69126,999,565,.68783608E-3,.222E-3,0
STARLINK-37706,2026-110D,2026-06-17T11:55:49.095264,15.33452277,.00019727,97.2841,4.8602,91.7666,268.3802,0,U,69127,999,565,.37161635E-3,.11944E-3,0
STARLINK-37723,2026-110E,2026-06-17T11:51:54.211680,15.33455557,.00017067,97.2838,4.8625,86.9366,273.2072,0,U,69128,999,565,.36669416E-3,.11786E-3,0
STARLINK-37720,2026-110F,2026-06-17T13:08:13.456608,15.49208166,.00015205,97.2839,4.7914,94.2231,265.9194,0,U,69129,999,565,.64591632E-3,.3522E-3,0
STARLINK-37533,2026-110G,2026-06-17T14:00:01.000224,15.33430167,.00015289,97.2846,4.9706,89.2498,86.7219,0,U,69130,999,571,-.15759021E-3,-.5157E-4,0
STARLINK-37530,2026-110H,2026-06-17T14:00:01.000224,15.33448520,.00019553,97.2844,4.9771,86.1767,104.7712,0,U,69131,999,571,-.36508987E-3,-.11845E-3,0
STARLINK-37660,2026-110J,2026-06-17T14:00:01.000224,15.36970887,.00017346,97.2848,4.9660,82.9823,93.3136,0,U,69132,999,571,.43988786E-4,.1511E-4,0
STARLINK-37633,2026-110K,2026-06-17T14:00:01.000224,15.36944374,.00020131,97.2849,4.9949,120.4511,97.1620,0,U,69133,999,571,-.92741384E-1,-.295548E-1,0
STARLINK-37361,2026-110L,2026-06-17T14:00:01.000224,15.33454909,.00021599,97.2845,4.9962,86.9100,149.0271,0,U,69134,999,571,-.45818725E-3,-.14844E-3,0
STARLINK-37372,2026-110M,2026-06-17T14:00:01.000224,15.36960476,.00011767,97.2848,4.9923,58.3764,170.3248,0,U,69135,999,571,.46018919E-4,.1583E-4,0
STARLINK-37531,2026-110N,2026-06-17T14:00:01.000224,15.33456271,.0001745,97.2845,5.0083,91.8934,174.0241,0,U,69136,999,571,-.51628278E-3,-.16712E-3,0
STARLINK-37662,2026-110P,2026-06-17T14:00:01.000224,15.36962638,.00012147,97.2848,4.9944,76.5735,161.6853,0,U,69137,999,571,.59443603E-4,.2069E-4,0
STARLINK-37658,2026-110Q,2026-06-17T11:53:22.356096,15.49211271,.00015459,97.2837,4.8620,93.7562,266.3866,0,U,69138,999,565,.76107832E-3,.41554E-3,0
STARLINK-37659,2026-110R,2026-06-17T12:04:27.199776,15.49211344,.00016153,97.2835,4.8520,70.4826,289.6600,0,U,69139,999,565,.54108975E-3,.29471E-3,0
STARLINK-37653,2026-110S,2026-06-17T12:08:00.102336,15.49221017,.00015909,97.2836,4.8487,99.1299,261.0132,0,U,69140,999,565,.68450387E-3,.37357E-3,0
STARLINK-37654,2026-110T,2026-06-15T12:34:52.995072,15.49252690,.00018186,97.2827,2.9503,88.7991,271.3469,0,U,69141,999,535,.70164466E-3,.38342E-3,0
STARLINK-37655,2026-110U,2026-06-17T14:00:01.000224,15.36989611,.00010933,97.2848,5.0301,95.0928,224.9869,0,U,69142,999,572,-.38435836E-3,-.13941E-3,0
STARLINK-37636,2026-110V,2026-06-17T14:00:01.000224,15.33457358,.00020033,97.2844,5.0536,74.7901,296.0279,0,U,69143,999,572,-.37474648E-3,-.12159E-3,0
STARLINK-37638,2026-110W,2026-06-17T14:00:01.000224,15.33452731,.00012462,97.2844,5.0598,81.4623,304.4764,0,U,69144,999,572,-.44355082E-3,-.14371E-3,0
STARLINK-37657,2026-110X,2026-06-17T12:38:35.141568,15.49212420,.00013028,97.2820,4.9711,96.0721,264.0679,0,U,69145,999,566,.57347262E-3,.31248E-3,0
STARLINK-37639,2026-110Y,2026-06-17T14:00:01.000224,15.33435126,.00014981,97.2844,5.0736,75.5771,340.2504,0,U,69146,999,577,.63372366E-4,.1971E-4,0
STARLINK-37661,2026-110Z,2026-06-17T13:09:28.661760,15.49205276,.00012208,97.2808,4.9399,68.1818,291.9563,0,U,69147,999,566,.60437222E-3,.32936E-3,0
STARLINK-37395,2026-111A,2026-06-17T14:00:01.000224,15.57947179,.00011897,53.1603,150.2121,108.3440,329.7637,0,U,69148,999,561,-.14580577E-1,-.1014543E-1,0
STARLINK-37346,2026-111B,2026-06-17T14:00:01.000224,15.49305587,.00013105,53.1599,150.9245,82.4884,3.5849,0,U,69149,999,561,-.32510769E-4,-.2256E-4,0
STARLINK-37332,2026-111C,2026-06-17T03:29:05.102016,15.49339469,.00011766,53.1605,153.3440,97.5302,262.5841,0,U,69150,999,423,.79880057E-3,.44278E-3,0
STARLINK-37297,2026-111D,2026-06-17T14:00:01.000224,15.52639091,.0001896,53.1600,150.2100,68.7138,9.5811,0,U,69151,999,561,-.52685017E-1,-.2873168E-1,0
STARLINK-37317,2026-111E,2026-06-17T14:00:01.000224,15.57066042,.0001343,53.1598,150.0181,78.0830,94.7871,0,U,69152,999,561,-.38966483E-1,-.2495846E-1,0
