SMILE                   
1 69123U 26109A   26158.38327019 -.00000041  00000+0 -36778-3 0  9994
2 69123  69.9787 209.3069 3310191 288.5544  45.7342  7.54049028  2480
STARLINK-37726          
1 69124U 26110A   26168.55616229  .00028345  00000+0  52078-3 0  9997
2 69124  97.2839   4.7768 0001493  90.7792 269.3630 15.49198710  5655
STARLINK-37722          
1 69125U 26110B   26166.55038854  .00028583  00000+0  52493-3 0  9993
2 69125  97.2822   2.9146 0001731  97.0248 263.1200 15.49208597  5356
STARLINK-37715          
1 69126U 26110C   26168.49981748  .00022200  00000+0  68784-3 0  9998
2 69126  97.2841   4.8560 0002030  79.4354 280.7118 15.33449985  5651
STARLINK-37706          
1 69127U 26110D   26168.49709601  .00011944  00000+0  37162-3 0  9994
2 69127  97.2841   4.8602 0001972  91.7666 268.3802 15.33452277  5656
STARLINK-37723          
1 69128U 26110E   26168.49437745  .00011786  00000+0  36669-3 0  9997
2 69128  97.2838   4.8625 0001706  86.9366 273.2072 15.33455557  5654
STARLINK-37720          
1 69129U 26110F   26168.54737797  .00035220  00000+0  64592-3 0  9999
2 69129  97.2839   4.7914 0001520  94.2231 265.9194 15.49208166  5655
STARLINK-37533          
1 69130U 26110G   26168.58334491 -.00005157  00000+0 -15759-3 0  9998
2 69130  97.2846   4.9706 0001528  89.2498  86.7219 15.33430167  5718
STARLINK-37530          
1 69131U 26110H   26168.58334491 -.00011845  00000+0 -36509-3 0  9996
2 69131  97.2844   4.9771 0001955  86.1767 104.7712 15.33448520  5719
STARLINK-37660          
1 69132U 26110J   26168.58334491  .00001511  00000+0  43989-4 0  9995
2 69132  97.2848   4.9660 0001734  82.9823  93.3136 15.36970887  5715
STARLINK-37633          
1 69133U 26110K   26168.58334491 -.02955480  00000+0 -92741-1 0  9990
2 69133  97.2849   4.9949 0002013 120.4511  97.1620 15.36944374  5712
STARLINK-37361          
1 69134U 26110L   26168.58334491 -.00014844  00000+0 -45819-3 0  9995
2 69134  97.2845   4.9962 0002159  86.9100 149.0271 15.33454909  5711
STARLINK-37372          
1 69135U 26110M   26168.58334491  .00001583  00000+0  46019-4 0  9994
2 69135  97.2848   4.9923 0001176  58.3764 170.3248 15.36960476  5714
STARLINK-37531          
1 69136U 26110N   26168.58334491 -.00016712  00000+0 -51628-3 0  9998
2 69136  97.2845   5.0083 0001745  91.8934 174.0241 15.33456271  5718
STARLINK-37662          
1 69137U 26110P   26168.58334491  .00002069  00000+0  59444-4 0  9992
2 69137  97.2848   4.9944 0001214  76.5735 161.6853 15.36962638  5719
STARLINK-37658          
1 69138U 26110Q   26168.49539764  .00041554  00000+0  76108-3 0  9990
2 69138  97.2837   4.8620 0001545  93.7562 266.3866 15.49211271  5658
STARLINK-37659          
1 69139U 26110R   26168.50309259  .00029471  00000+0  54109-3 0  9998
2 69139  97.2835   4.8520 0001615  70.4826 289.6600 15.49211344  5654
STARLINK-37653          
1 69140U 26110S   26168.50555674  .00037357  00000+0  68450-3 0  9990
2 69140  97.2836   4.8487 0001590  99.1299 261.0132 15.49221017  5655
STARLINK-37654          
1 69141U 26110T   26166.52422448  .00038342  00000+0  70164-3 0  9993
2 69141  97.2827   2.9503 0001818  88.7991 271.3469 15.49252690  5355
STARLINK-37655          
1 69142U 26110U   26168.58334491 -.00013941  00000+0 -38436-3 0  9998
2 69142  97.2848   5.0301 0001093  95.0928 224.9869 15.36989611  5720
STARLINK-37636          
1 69143U 26110V   26168.58334491 -.00012159  00000+0 -37475-3 0  9991
2 69143  97.2844   5.0536 0002003  74.7901 296.0279 15.33457358  5724
STARLINK-37638          
1 69144U 26110W   26168.58334491 -.00014371  00000+0 -44355-3 0  9995
2 69144  97.2844   5.0598 0001246  81.4623 304.4764 15.33452731  5720
STARLINK-37657          
1 69145U 26110X   26168.52679562  .00031248  00000+0  57347-3 0  9996
2 69145  97.2820   4.9711 0001302  96.0721 264.0679 15.49212420  5669
STARLINK-37639          
1 69146U 26110Y   26168.58334491  .00001971  00000+0  63372-4 0  9998
2 69146  97.2844   5.0736 0001498  75.5771 340.2504 15.33435126  5777
STARLINK-37661          
1 69147U 26110Z   26168.54824840  .00032936  00000+0  60437-3 0  9990
2 69147  97.2808   4.9399 0001220  68.1818 291.9563 15.49205276  5667
STARLINK-37395          
1 69148U 26111A   26168.58334491 -.01014543  00000+0 -14581-1 0  9998
2 69148  53.1603 150.2121 0001189 108.3440 329.7637 15.57947179  5613
STARLINK-37346          
1 69149U 26111B   26168.58334491 -.00002256  00000+0 -32511-4 0  9992
2 69149  53.1599 150.9245 0001310  82.4884   3.5849 15.49305587  5616
STARLINK-37332          
1 69150U 26111C   26168.14519794  .00044278  00000+0  79880-3 0  9994
2 69150  53.1605 153.3440 0001176  97.5302 262.5841 15.49339469  4234
STARLINK-37297          
1 69151U 26111D   26168.58334491 -.02873168  00000+0 -52685-1 0  9996
2 69151  53.1600 150.2100 0001896  68.7138   9.5811 15.52639091  5612
STARLINK-37317          
1 69152U 26111E   26168.58334491 -.02495846  00000+0 -38966-1 0  9996
2 69152  53.1598 150.0181 0001343  78.0830  94.7871 15.57066042  5613
